CORAL                   
1 67684U 98067YA  26092.97119205  .00146011  00000+0  18271-2 0  9997
2 67684  51.6286 310.0532 0013373 265.0050  94.9416 15.58700862  8575
GXIBA-1                 
1 67685U 98067YB  26092.97769536  .00072331  00000+0  10703-2 0  9991
2 67685  51.6304 310.8473 0012340 271.8778  88.0799 15.54544320  8562
UITMSAT-2               
1 67686U 98067YC  26092.63851904  .00069503  00000+0  99291-3 0  9993
2 67686  51.6305 312.3353 0009377 244.7057 115.2963 15.55557558  8512
HMU-SAT2                
1 67687U 98067YD  26092.91918496  .00072798  00000+0  10898-2 0  9990
2 67687  51.6311 311.2095 0008878 248.0698 111.9350 15.54267047  8472
LEOPARD                 
1 67688U 98067YE  26093.03217652  .00084376  00000+0  12198-2 0  9991
2 67688  51.6305 310.4638 0009181 245.8702 114.1330 15.55151529  8492
CREW DRAGON 12          
1 67796U 26031A   26093.10136821  .00012012  00000+0  22784-3 0  9990
2 67796  51.6327 311.6710 0006236 265.7481  94.2795 15.48735493560084
PROGRESS-MS 33          
1 68319U 26058A   26093.10136821  .00012012  00000+0  22784-3 0  9991
2 68319  51.6327 311.6710 0006236 265.7481  94.2795 15.48735493  1255
